#dP2020  2  1  2  0  0.00000000     576   u+U IGS14 FIT  WHU
## 2090 525600.00000000   300.00000000 58880 0.0833333333333
+  102   G01G02G03G04G05G06G07G08G09G10G11G12G13G14G15G16G17
+        G19G20G21G22G23G24G25G26G27G28G29G30G31G32R01R02R03
+        R04R05R07R08R11R12R13R14R15R16R17R18R19R20R21R22R23
+        C01C02C03C04C06C08C09C10C11C12C13C14C19C20C21C22C23
+        C24C25C26C27C28C29C30C33C34C35C36C37E01E02E03E04E05
+        E07E08E09E11E12E13E15E19E21E24E25E26E27E30E31E33E36
+          0  0  0  0  0  0  0  0  0  0  0  0  0  0  0  0  0
++         3  4  4  4  3  3  4  3  3  5  3  4  4  3  4  3  4
++         4  3  4  3  3  3  3  4  3  3  4  3  4  3  5  4  4
++         4  4  5  4  4  4  4  4  4  4  4  3  4  4  4  4  3
++         9  9  9  9 10  9 10 10 10 10 10 10 10 10 10 10 10
++        10 10  9 10 10 10 10 10 10 10 10  9  9  9  9  9  9
++         9  9  9  9  9  9  9  9  9  9  9  9  9  9  9  9  9
++         0  0  0  0  0  0  0  0  0  0  0  0  0  0  0  0  0
%c M  cc GPS ccc cccc cccc cccc cccc ccccc ccccc ccccc ccccc
%c cc cc ccc ccc cccc cccc cccc cccc ccccc ccccc ccccc ccccc
%f  1.2500000  1.025000000  0.00000000000  0.000000000000000
%f  0.0000000  0.000000000  0.00000000000  0.000000000000000
%i    0    0    0    0      0      0      0      0         0
%i    0    0    0    0      0      0      0      0         0
/* GNSS RESEARCH CENTER, WUHAN UNIVERSITY (WHU), P. R. CHINA
/* POSITION AND NAVIGATION DATA ANALYST (PANDA) SOFTWARE    
/*
/* PCV:IGS14_2085 OL/AL:FES2004  NONE     NN ORB:CoM CLK:CoN
*  2020  2  1 10 15  0.00000000
PG01 -12015.475487  20862.658662 -11043.439535   -280.921107
PG02  21108.891409 -12468.529707  -9457.967736   -396.700549
PG03  -2260.086674  15110.777204 -21787.489254    -84.647319
PG04  -1606.392728  24976.330709  -8852.823265    -42.615791
PG05  22130.863553  -4159.605803  14099.961239     -6.930283
PG06  19020.133945   -559.611823 -18492.428143   -197.371009
PG07   4399.914528  15991.512879  20934.013689   -204.797759
PG08  -8000.970355  18222.219437  17498.128484    -22.223982
PG09   6685.917025  25682.592384    804.935153   -145.677435
PG10 -23239.143135 -11671.853861   6052.613634   -229.900200
PG11 -10887.121244  24290.854282   1796.769137   -373.655947
PG12   6665.555057 -13364.861955 -22184.160330    156.068170
PG13  13167.456632 -10429.087592  20430.376983    -15.962978
PG14 -15369.658576  -5125.616528 -20750.539824    -35.211017
PG15   6400.722125 -19528.520188  16311.564774   -254.603934
PG16 -22500.641429    969.601589  14229.509833   -119.735859
PG17  13419.936566  15961.320573 -16055.391569    208.608612
PG19  14908.387572   7854.820119 -20821.153704   -204.639704
PG20 -16179.021255 -14453.060258  15368.726804    527.851262
PG21  -7008.462848 -14962.352896  21630.334462    -47.356956
PG22 -11146.302321  12865.831419 -20142.439033   -783.620748
PG23    514.227981  25139.827635  -7572.051059   -139.293947
PG24  12381.235794 -21738.324999  -8548.222266     -8.395156
PG25  -7662.741300 -16601.472224 -19585.595644    -14.569820
PG26 -25908.288668  -3250.169151   5439.138699    139.342298
PG27 -13423.843465   6903.984901  21701.359880   -198.259605
PG28  22458.941364  13249.509514   5223.700417    741.921274
PG29  -4155.728805 -26221.249304    275.706744    -22.045444
PG30  14462.206253   7809.899400  20923.413139   -142.783619
PG31 -20789.704806   2530.749627 -16637.888784    -20.330595
PG32 -15138.543046 -14482.191434 -16343.189086    200.736801
PR01   7008.690757  -8681.562411  22935.684569     56.440621
PR02 -10137.552988 -19767.278624  12623.674185    409.795546
PR03 -18644.334285 -16832.915231  -4551.242772      9.253424
PR04 -16346.250622  -4388.767942 -19063.542554     37.283321
PR05  -4820.664457  10484.439654 -22739.637948     44.190701
PR07  18728.428134  16486.787101   5227.655306    -32.703978
PR08  16418.275236   4320.509590  19080.469109    -50.324101
PR11  24933.262666  -5438.211467    734.097873    -11.990689
PR12  17150.017446 -11307.094402 -15079.772402    101.899590
PR13  -1103.548372 -10968.965814 -23022.148778    -34.255977
PR14 -18367.716399  -4218.483933 -17178.334038     47.662155
PR15 -24978.381665   4946.655676  -1570.773463    105.806283
PR16 -16696.777341  11820.558010  15296.811511     -1.286200
PR17  -6729.433004 -11693.593374  21656.287044    297.269370
PR18 -12134.128686   6074.701049  21607.238900     23.570511
PR19 -11682.932373  20239.032517  10234.067515    -76.920900
PR20  -3614.074934  23459.910453  -9263.736604   -402.980123
PR21   7006.198491  10917.055432 -21960.181736   -102.046024
PR22  12484.478994  -9132.202570 -20310.513188    -12.214649
PR23   9343.183187 -23389.304966  -4053.332611    283.550209
PC01 -32282.246823  27115.330325    761.619537    150.106695
PC02   4346.497133  41911.148998  -1159.195476    574.037097
PC03 -14797.474286  39447.952891   -367.878841   -354.103998
PC04 -39627.197663  14454.951398    353.990594   -424.301835
PC06  -7686.088627  36146.661370 -19589.357620    252.339231
PC08 -24444.566381  32075.213592 -12756.944691   -101.699623
PC09      4.096108  41129.718649  -8097.263040    303.500628
PC10    804.265169  26834.886782  32734.917713   -616.483981
PC11   9813.896427  18464.841886 -18438.679886   -155.042316
PC12  -1625.973842  27752.910624  -2538.437681    315.175495
PC13 -12841.196409  32712.482166 -23390.071065    241.308100
PC14  20836.161191  18265.418730  -3514.280728    123.889988
PC19 -24140.678079 -12870.805940  -5455.810796    314.470041
PC20 -14750.376673 -20676.362162  11547.520813   -642.701885
PC21  -3725.828057  16445.581911 -22222.630719    -32.668615
PC22 -19641.129677   2580.294543 -19642.655057   -774.707457
PC23  25811.757683 -10590.961174    411.178520   -880.782993
PC24   5431.474798  15226.509246  22737.463774   -913.346766
PC25  22537.327514   2417.192549  16259.621060   -500.329697
PC26 -13296.221030  18534.635860  16092.591312    555.971311
PC27   7865.424018 -26022.545024  -6360.160983    271.481589
PC28  15546.159841 -11520.193890 -20098.060444    262.421799
PC29 -14501.517169  -9084.226787  22044.309662    182.422314
PC30  -5190.484631 -25198.836280  10841.330228    265.904311
PC33  24216.995824  12782.593902   5417.903254   -852.044302
PC34   5381.519777  24986.373220 -11170.420927   -435.367206
PC35 -15235.706559  11862.331431  20140.359927   -828.067726
PC36 -22364.724140  -3073.544621 -16385.592480   -835.796065
PC37  14253.919093 -18138.364728 -15674.615682   -895.025323
PE01  15349.292039 -13825.036222 -21197.549811   -785.042318
PE02 -15299.054129  13845.973043  21227.516347    110.361501
PE03  -5972.150770  19955.853521 -21039.452895   -260.801095
PE04  -9707.546604 -27155.249500   6676.807653   -456.429574
PE05 -18331.245357    963.068680 -23223.919968   -408.503183
PE07  19893.619920  18463.974607  11822.108306   -334.275070
PE08  10070.318984  27064.581500  -6530.469704   6227.201294
PE09 -19971.257809 -18287.972319 -11937.865656   6170.935594
PE11 -13745.666754  -8835.805916  24684.915674   1058.493657
PE12   1430.434301 -24392.198944  16731.533895   5973.610055
PE13  13572.334660   8959.187377 -24718.612723    398.578390
PE15  -1203.567321  24260.688146 -16897.794616    879.454297
PE19   7494.520402 -18268.446002  22051.902438     -1.086645
PE21  28704.357189  -3713.990927  -6188.305741   -579.611095
PE24 -25270.254231  -8916.606249 -12615.322318   5633.636950
PE25 -28742.643549   3645.299582   6085.528576   -502.102087
PE26  20590.830437 -11688.131952 -17750.296107   3580.650625
PE27  25326.962200   8721.588266  12585.236952    292.215191
PE30   6826.491795  16082.050496  23881.561820   4179.060331
PE31  -7107.489725 -15976.221057 -23879.091831   -470.905351
PE33  15271.210550 -25347.560076   -818.043327   -469.997189
PE36 -20398.538255  11592.701383  18057.111331    604.563542
EOF
